IRIDIUM 171             
1 43929U 19002H   25072.82864401  .00000035  00000+0  52995-5 0  9990
2 43929  86.4052 186.2110 0001659  98.5328 261.6056 14.34218292322974
IRIDIUM 170             
1 43930U 19002J   25072.88785854  .00000112  00000+0  13885-4 0  9992
2 43930  86.6161 185.9586 0002179  86.7080 273.4386 14.72261939331531
IRIDIUM 167             
1 43931U 19002K   25073.24091280  .00000623  00000+0  21525-3 0  9993
2 43931  86.4043 185.8026 0001984  85.4714 274.6708 14.34221980323037
IRIDIUM 181             
1 56726U 23068S   25072.96728368  .00000308  00000+0  85457-4 0  9993
2 56726  86.4461 248.9966 0001658  85.7901 274.3489 14.43313360 96056
IRIDIUM 177             
1 56727U 23068T   25072.82044200  .00004169  00000+0  54507-3 0  9995
2 56727  86.2033 187.3547 0002195  87.5168 272.6304 14.80231562 98269
IRIDIUM 174             
1 56728U 23068U   25072.88262056  .00004094  00000+0  53534-3 0  9999
2 56728  86.2038 187.4499 0001984 104.3452 255.7989 14.80222531 98279
IRIDIUM 178             
1 56729U 23068V   25073.07999332  .00000203  00000+0  23206-4 0  9998
2 56729  86.5799 217.5596 0001787 117.8979 242.2423 14.80227726 98303
IRIDIUM 179             
1 56730U 23068W   25072.93936136  .00003747  00000+0  48948-3 0  9992
2 56730  86.6785 225.1429 0002072  95.9738 264.1720 14.80240582 98283
